[Satellite]
VERSION=1.1
NAME=ALMASAT-1
NICKNAME=ALMASAT-1
TLE1=1 38078U 12006B   20114.24750933  .01726645  46175-5  41316-3 0  9993
TLE2=2 38078  69.4001  79.3451 0018840 152.0070 337.0324 16.28722871446351
STATUS=0
